OBJECT_NAME,OBJECT_ID,EPOCH,MEAN_MOTION,ECCENTRICITY,INCLINATION,RA_OF_ASC_NODE,ARG_OF_PERICENTER,MEAN_ANOMALY,EPHEMERIS_TYPE,CLASSIFICATION_TYPE,NORAD_CAT_ID,ELEMENT_SET_NO,REV_AT_EPOCH,BSTAR,MEAN_MOTION_DOT,MEAN_MOTION_DDOT
COSMOS 2058,1990-010A,2026-06-12T04:07:41.971584,15.11979331,.00098617,82.4661,314.3009,18.5506,341.6082,0,U,20465,999,95651,.21916089E-3,.3792E-4,0
SL-14 R/B,1990-010B,2026-06-12T02:37:52.618656,14.83642942,.00195482,82.5016,178.7135,353.3711,6.7243,0,U,20466,999,94248,.35508005E-4,.318E-5,0
SL-14 R/B,1990-018B,2026-06-12T06:51:34.168032,14.82213108,.00171796,82.5209,134.6889,136.7527,223.5040,0,U,20511,999,93659,.42374132E-4,.362E-5,0
HST,1990-037B,2026-06-12T06:04:57.367200,15.30693075,.00019522,28.4709,114.2921,91.9422,268.1398,0,U,20580,999,78781,.18891564E-3,.6001E-4,0
SL-16 R/B,1990-046B,2026-06-12T05:05:04.466400,14.15024166,.00137637,70.9992,99.3968,169.2172,190.9248,0,U,20625,999,86176,.16899216E-3,.28E-5,0
COSMOS 2084,1990-055A,2026-06-11T22:46:43.435776,15.06094647,.0005477,62.7911,13.9695,269.6718,90.3755,0,U,20663,999,95051,.13154548E-3,.173E-4,0
SL-6 R/B(2),1990-055D,2026-06-12T01:30:21.688992,15.03986009,.00398249,62.7826,292.8140,4.4427,355.7018,0,U,20666,999,95238,.11128535E-3,.1362E-4,0
SL-8 R/B,1990-078B,2026-06-12T03:59:00.120768,14.92125732,.03520364,82.9012,166.1809,55.3710,308.0172,0,U,20775,999,82337,.58475528E-3,.20763E-3,0
SL-8 R/B,1991-006B,2026-06-12T06:41:40.912800,13.77505544,.00234863,82.9424,99.6849,127.6276,341.1679,0,U,21088,999,77709,.17495774E-4,.33E-6,0
OKEAN-3,1991-039A,2026-06-12T06:51:57.897792,15.05302522,.00144501,82.5159,245.1336,15.9806,344.1874,0,U,21397,999,87926,.14844986E-3,.2155E-4,0
COSMOS 2151,1991-042A,2026-06-12T06:11:39.724224,15.00424516,.00138104,82.4960,352.4383,98.7811,261.4978,0,U,21422,999,87737,.12287024E-3,.1574E-4,0
SL-14 R/B,1991-042B,2026-06-12T06:59:29.415552,14.81899605,.00155391,82.4925,131.4868,292.5657,67.3912,0,U,21423,999,86708,.41651354E-4,.353E-5,0
ERS-1,1991-050A,2026-06-12T07:10:58.097856,14.39514636,.0030716,98.7797,183.8778,282.1092,77.6654,0,U,21574,999,82934,.11216433E-3,.305E-5,0
ARIANE 40 R/B,1991-050F,2026-06-12T03:00:59.681664,14.42954038,.0004044,98.1876,211.7395,132.1488,228.0047,0,U,21610,999,83261,.79642723E-4,.225E-5,0
INTERCOSMOS 25,1991-086A,2026-06-12T05:48:48.332448,12.12190046,.14841939,82.6053,252.8023,273.0702,70.2152,0,U,21819,999,50814,.10506642E-3,.527E-5,0
SL-8 R/B,1992-008B,2026-06-12T04:21:27.801792,13.75975605,.00335643,82.9264,197.5093,229.0644,194.3517,0,U,21876,999,72241,.12033881E-3,.132E-5,0
SL-8 R/B,1992-020B,2026-06-12T06:20:02.328576,13.75548332,.00300174,82.9306,83.5140,35.9750,77.8333,0,U,21938,999,71413,.23176698E-4,.38E-6,0
USA 81,1992-023A,2026-06-12T05:53:05.091648,14.32396972,.00027826,85.0077,76.8597,89.1413,271.0099,0,U,21949,999,10832,.476521E-4,.149E-5,0
COSMOS 2219,1992-076A,2026-06-12T05:44:08.298816,14.14096469,.00163662,71.0575,180.4164,52.2360,308.0242,0,U,22219,999,73174,.10148943E-3,.146E-5,0
SL-16 R/B,1992-076B,2026-06-12T06:01:39.861984,14.16871167,.00145602,71.0003,349.1798,305.0916,228.2150,0,U,22220,999,73522,-.2048895E-4,-.89E-6,0
COSMOS 2221,1992-080A,2026-06-12T02:58:57.288288,14.96520362,.00129006,82.5031,188.6153,230.7673,129.2405,0,U,22236,999,79491,.97978435E-4,.1141E-4,0
SL-16 R/B,1992-093B,2026-06-12T07:05:38.068800,14.15463449,.00042332,71.0199,165.6605,196.2935,163.8053,0,U,22285,999,72654,-.10720992E-3,-.257E-5,0
COSMOS 2228,1992-094A,2026-06-12T05:02:33.352800,14.97569623,.00173924,82.5172,146.8100,349.5522,10.5337,0,U,22286,999,79020,.15876587E-3,.1885E-4,0
SL-16 R/B,1993-016B,2026-06-11T23:49:06.743424,14.15310724,.00105738,71.0082,17.1186,190.7792,169.3106,0,U,22566,999,71551,.16449958E-3,.273E-5,0
COSMOS 2242,1993-024A,2026-06-12T07:13:24.691008,14.96889883,.00158469,82.5179,176.2176,353.1777,6.9227,0,U,22626,999,79454,.13598713E-3,.1589E-4,0
SL-16 R/B,1993-059B,2026-06-12T06:24:26.252064,14.17246824,.00150805,70.9885,171.6797,62.4826,297.7828,0,U,22803,999,69293,.15361524E-3,.263E-5,0
ARIANE 40 R/B,1993-061H,2026-06-12T04:15:59.013504,14.32905892,.00107993,98.4818,230.1387,11.3082,348.8343,0,U,22830,999,70763,.76915855E-4,.167E-5,0
COSMOS 2278,1994-023A,2026-06-11T22:37:30.229536,14.14395726,.00105981,71.0546,337.8981,249.1251,110.8737,0,U,23087,999,65813,.18126421E-3,.3E-5,0
SL-16 R/B,1994-023B,2026-06-12T07:12:23.065344,14.15021962,.00030897,70.9993,232.1943,191.0839,169.0217,0,U,23088,999,65947,.18676892E-3,.314E-5,0
SL-16 R/B,1994-074B,2026-06-12T01:46:54.587424,14.79497935,.00050819,97.6992,190.0081,275.1703,142.2841,0,U,23343,999,70120,.51489671E-4,.336E-5,0
