COSMOS 2058             
1 20465U 90010A   26163.17201356  .00003792  00000+0  21916-3 0  9992
2 20465  82.4661 314.3009 0009861  18.5506 341.6082 15.11979331956515
SL-14 R/B               
1 20466U 90010B   26163.10963679  .00000318  00000+0  35508-4 0  9993
2 20466  82.5016 178.7135 0019548 353.3711   6.7243 14.83642942942486
SL-14 R/B               
1 20511U 90018B   26163.28581213  .00000362  00000+0  42374-4 0  9999
2 20511  82.5209 134.6889 0017179 136.7527 223.5040 14.82213108936590
HST                     
1 20580U 90037B   26163.25344175  .00006001  00000+0  18892-3 0  9990
2 20580  28.4709 114.2921 0001952  91.9422 268.1398 15.30693075787818
SL-16 R/B               
1 20625U 90046B   26163.21185725  .00000280  00000+0  16899-3 0  9998
2 20625  70.9992  99.3968 0013763 169.2172 190.9248 14.15024166861766
COSMOS 2084             
1 20663U 90055A   26162.94911384  .00001730  00000+0  13155-3 0  9990
2 20663  62.7911  13.9695 0005477 269.6718  90.3755 15.06094647950511
SL-6 R/B(2)             
1 20666U 90055D   26163.06275103  .00001362  00000+0  11129-3 0  9999
2 20666  62.7826 292.8140 0039824   4.4427 355.7018 15.03986009952383
SL-8 R/B                
1 20775U 90078B   26163.16597362  .00020763  00000+0  58476-3 0  9992
2 20775  82.9012 166.1809 0352036  55.3710 308.0172 14.92125732823376
SL-8 R/B                
1 21088U 91006B   26163.27894575  .00000033  00000+0  17496-4 0  9996
2 21088  82.9424  99.6849 0023486 127.6276 341.1679 13.77505544777091
OKEAN-3                 
1 21397U 91039A   26163.28608678  .00002155  00000+0  14845-3 0  9994
2 21397  82.5159 245.1336 0014450  15.9806 344.1874 15.05302522879269
COSMOS 2151             
1 21422U 91042A   26163.25809866  .00001574  00000+0  12287-3 0  9998
2 21422  82.4960 352.4383 0013810  98.7811 261.4978 15.00424516877374
SL-14 R/B               
1 21423U 91042B   26163.29131268  .00000353  00000+0  41651-4 0  9999
2 21423  82.4925 131.4868 0015539 292.5657  67.3912 14.81899605867082
ERS-1                   
1 21574U 91050A   26163.29928354  .00000305  00000+0  11216-3 0  9995
2 21574  98.7797 183.8778 0030716 282.1092  77.6654 14.39514636829344
ARIANE 40 R/B           
1 21610U 91050F   26163.12569076  .00000225  00000+0  79643-4 0  9990
2 21610  98.1876 211.7395 0004044 132.1488 228.0047 14.42954038832611
INTERCOSMOS 25          
1 21819U 91086A   26163.24222607  .00000527  00000+0  10507-3 0  9997
2 21819  82.6053 252.8023 1484193 273.0702  70.2152 12.12190046508141
SL-8 R/B                
1 21876U 92008B   26163.18157178  .00000132  00000+0  12034-3 0  9997
2 21876  82.9264 197.5093 0033564 229.0644 194.3517 13.75975605722413
SL-8 R/B                
1 21938U 92020B   26163.26391584  .00000038  00000+0  23177-4 0  9996
2 21938  82.9306  83.5140 0030017  35.9750  77.8333 13.75548332714132
USA 81                  
1 21949U 92023A   26163.24519782  .00000149  00000+0  47652-4 0  9998
2 21949  85.0077  76.8597 0002782  89.1413 271.0099 14.32396972108329
COSMOS 2219             
1 22219U 92076A   26163.23898494  .00000146  00000+0  10149-3 0  9993
2 22219  71.0575 180.4164 0016366  52.2360 308.0242 14.14096469731742
SL-16 R/B               
1 22220U 92076B   26163.25115581 -.00000089  00000+0 -20489-4 0  9993
2 22220  71.0003 349.1798 0014560 305.0916 228.2150 14.16871167735223
COSMOS 2221             
1 22236U 92080A   26163.12427417  .00001141  00000+0  97978-4 0  9990
2 22236  82.5031 188.6153 0012900 230.7673 129.2405 14.96520362794919
SL-16 R/B               
1 22285U 92093B   26163.29557950 -.00000257  00000+0 -10721-3 0  9991
2 22285  71.0199 165.6605 0004233 196.2935 163.8053 14.15463449726545
COSMOS 2228             
1 22286U 92094A   26163.21010825  .00001885  00000+0  15877-3 0  9993
2 22286  82.5172 146.8100 0017392 349.5522  10.5337 14.97569623790208
SL-16 R/B               
1 22566U 93016B   26162.99243916  .00000273  00000+0  16450-3 0  9990
2 22566  71.0082  17.1186 0010573 190.7792 169.3106 14.15310724715519
COSMOS 2242             
1 22626U 93024A   26163.30098022  .00001589  00000+0  13599-3 0  9990
2 22626  82.5179 176.2176 0015846 353.1777   6.9227 14.96889883794548
SL-16 R/B               
1 22803U 93059B   26163.26697051  .00000263  00000+0  15362-3 0  9995
2 22803  70.9885 171.6797 0015080  62.4826 297.7828 14.17246824692935
ARIANE 40 R/B           
1 22830U 93061H   26163.17776636  .00000167  00000+0  76916-4 0  9991
2 22830  98.4818 230.1387 0010799  11.3082 348.8343 14.32905892707639
COSMOS 2278             
1 23087U 94023A   26162.94271099  .00000300  00000+0  18126-3 0  9999
2 23087  71.0546 337.8981 0010598 249.1251 110.8737 14.14395726658133
SL-16 R/B               
1 23088U 94023B   26163.30026696  .00000314  00000+0  18677-3 0  9998
2 23088  70.9993 232.1943 0003089 191.0839 169.0217 14.15021962659473
SL-16 R/B               
1 23343U 94074B   26163.07424291  .00000336  00000+0  51490-4 0  9990
2 23343  97.6992 190.0081 0005081 275.1703 142.2841 14.79497935701207
